{
  "type": "FeatureCollection",
  "features": [
    {
      "type": "Feature",
      "properties": {
        "norad_id": 64694,
        "name": "GOSAT-GW (IBUKI GW)",
        "group": "resource",
        "lat": -34.40937956380125,
        "lon": 107.08599964211045,
        "alt_km": 675.7537187716607,
        "timestamp": "2025-12-23T07:45:09.054606+00:00",
        "meta_object_name": "GOSAT-GW (IBUKI GW)",
        "meta_object_id": "2025-141A",
        "meta_epoch": "2025-12-22T22:35:44.149344",
        "meta_mean_motion": 14.67564805,
        "meta_eccentricity": 0.00014288,
        "meta_inclination": 98.0438,
        "meta_ra_of_asc_node": 292.2699,
        "meta_arg_of_pericenter": 84.1385,
        "meta_mean_anomaly": 275.9983,
        "meta_ephemeris_type": 0,
        "meta_classification_type": "U",
        "meta_norad_cat_id": 64694,
        "meta_element_set_no": 999,
        "meta_rev_at_epoch": 2599,
        "meta_bstar": 0.00017975921,
        "meta_mean_motion_dot": 9.72e-06,
        "meta_mean_motion_ddot": 0,
        "tle_line1": "1 64694U 25141A   25356.94148321  .00000972  00000+0  17976-3 0  9995",
        "tle_line2": "2 64694  98.0438 292.2699 0001428  84.1385 275.9983 14.67564805 25990"
      },
      "geometry": {
        "type": "Point",
        "coordinates": [
          107.08599964211045,
          -34.40937956380125
        ]
      }
    },
    {
      "type": "Feature",
      "properties": {
        "norad_id": 64876,
        "name": "IONOSFERA-M 3",
        "group": "resource",
        "lat": -78.84330523627473,
        "lon": 88.93975586893929,
        "alt_km": 828.8482954387846,
        "timestamp": "2025-12-23T07:45:09.054617+00:00",
        "meta_object_name": "IONOSFERA-M 3",
        "meta_object_id": "2025-155A",
        "meta_epoch": "2025-12-22T23:45:43.733664",
        "meta_mean_motion": 14.21443453,
        "meta_eccentricity": 0.00019218,
        "meta_inclination": 98.5797,
        "meta_ra_of_asc_node": 318.5667,
        "meta_arg_of_pericenter": 43.1469,
        "meta_mean_anomaly": 316.9859,
        "meta_ephemeris_type": 0,
        "meta_classification_type": "U",
        "meta_norad_cat_id": 64876,
        "meta_element_set_no": 999,
        "meta_rev_at_epoch": 2137,
        "meta_bstar": 5.6633284e-05,
        "meta_mean_motion_dot": 8.1e-07,
        "meta_mean_motion_ddot": 0,
        "tle_line1": "1 64876U 25155A   25356.99008951  .00000081  00000+0  56633-4 0  9996",
        "tle_line2": "2 64876  98.5797 318.5667 0001921  43.1469 316.9859 14.21443453 21379"
      },
      "geometry": {
        "type": "Point",
        "coordinates": [
          88.93975586893929,
          -78.84330523627473
        ]
      }
    },
    {
      "type": "Feature",
      "properties": {
        "norad_id": 64877,
        "name": "IONOSFERA-M 4",
        "group": "resource",
        "lat": 79.27164439371656,
        "lon": -94.01896509284339,
        "alt_km": 812.2630613907004,
        "timestamp": "2025-12-23T07:45:09.054627+00:00",
        "meta_object_name": "IONOSFERA-M 4",
        "meta_object_id": "2025-155B",
        "meta_epoch": "2025-12-22T22:54:51.003936",
        "meta_mean_motion": 14.21444613,
        "meta_eccentricity": 0.0001344,
        "meta_inclination": 98.5798,
        "meta_ra_of_asc_node": 318.4518,
        "meta_arg_of_pericenter": 53.6183,
        "meta_mean_anomaly": 306.5118,
        "meta_ephemeris_type": 0,
        "meta_classification_type": "U",
        "meta_norad_cat_id": 64877,
        "meta_element_set_no": 999,
        "meta_rev_at_epoch": 2136,
        "meta_bstar": 5.5848241e-05,
        "meta_mean_motion_dot": 7.9e-07,
        "meta_mean_motion_ddot": 0,
        "tle_line1": "1 64877U 25155B   25356.95475699  .00000079  00000+0  55848-4 0  9994",
        "tle_line2": "2 64877  98.5798 318.4518 0001344  53.6183 306.5118 14.21444613 21364"
      },
      "geometry": {
        "type": "Point",
        "coordinates": [
          -94.01896509284339,
          79.27164439371656
        ]
      }
    },
    {
      "type": "Feature",
      "properties": {
        "norad_id": 64899,
        "name": "MICROCARB",
        "group": "resource",
        "lat": 3.3326566967830344,
        "lon": 72.02894004770076,
        "alt_km": 661.1083464531321,
        "timestamp": "2025-12-23T07:45:09.054637+00:00",
        "meta_object_name": "MICROCARB",
        "meta_object_id": "2025-156A",
        "meta_epoch": "2025-12-22T17:03:18.704160",
        "meta_mean_motion": 14.72072327,
        "meta_eccentricity": 0.00175822,
        "meta_inclination": 98.0013,
        "meta_ra_of_asc_node": 71.8958,
        "meta_arg_of_pericenter": 114.8411,
        "meta_mean_anomaly": 245.4627,
        "meta_ephemeris_type": 0,
        "meta_classification_type": "U",
        "meta_norad_cat_id": 64899,
        "meta_element_set_no": 999,
        "meta_rev_at_epoch": 2200,
        "meta_bstar": 0.00010758521,
        "meta_mean_motion_dot": 6.28e-06,
        "meta_mean_motion_ddot": 0,
        "tle_line1": "1 64899U 25156A   25356.71063315  .00000628  00000+0  10759-3 0  9992",
        "tle_line2": "2 64899  98.0013  71.8958 0017582 114.8411 245.4627 14.72072327 22009"
      },
      "geometry": {
        "type": "Point",
        "coordinates": [
          72.02894004770076,
          3.3326566967830344
        ]
      }
    },
    {
      "type": "Feature",
      "properties": {
        "norad_id": 64900,
        "name": "CO3D 3",
        "group": "resource",
        "lat": 74.14696326937047,
        "lon": 46.16332600742813,
        "alt_km": 497.2500216450462,
        "timestamp": "2025-12-23T07:45:09.054647+00:00",
        "meta_object_name": "CO3D 3",
        "meta_object_id": "2025-156B",
        "meta_epoch": "2025-12-22T21:56:28.224384",
        "meta_mean_motion": 15.20195162,
        "meta_eccentricity": 0.00013441,
        "meta_inclination": 97.4341,
        "meta_ra_of_asc_node": 73.1354,
        "meta_arg_of_pericenter": 72.3261,
        "meta_mean_anomaly": 287.8121,
        "meta_ephemeris_type": 0,
        "meta_classification_type": "U",
        "meta_norad_cat_id": 64900,
        "meta_element_set_no": 999,
        "meta_rev_at_epoch": 2275,
        "meta_bstar": 0.00030461711,
        "meta_mean_motion_dot": 6.531e-05,
        "meta_mean_motion_ddot": 0,
        "tle_line1": "1 64900U 25156B   25356.91421556  .00006531  00000+0  30462-3 0  9994",
        "tle_line2": "2 64900  97.4341  73.1354 0001344  72.3261 287.8121 15.20195162 22752"
      },
      "geometry": {
        "type": "Point",
        "coordinates": [
          46.16332600742813,
          74.14696326937047
        ]
      }
    },
    {
      "type": "Feature",
      "properties": {
        "norad_id": 64901,
        "name": "CO3D 4",
        "group": "resource",
        "lat": 73.44223464964969,
        "lon": 47.48762865495455,
        "alt_km": 498.095485238895,
        "timestamp": "2025-12-23T07:45:09.054656+00:00",
        "meta_object_name": "CO3D 4",
        "meta_object_id": "2025-156C",
        "meta_epoch": "2025-12-22T17:12:19.854144",
        "meta_mean_motion": 15.20218181,
        "meta_eccentricity": 0.00013582,
        "meta_inclination": 97.4339,
        "meta_ra_of_asc_node": 72.9412,
        "meta_arg_of_pericenter": 164.3046,
        "meta_mean_anomaly": 195.8231,
        "meta_ephemeris_type": 0,
        "meta_classification_type": "U",
        "meta_norad_cat_id": 64901,
        "meta_element_set_no": 999,
        "meta_rev_at_epoch": 2272,
        "meta_bstar": 0.00027567855,
        "meta_mean_motion_dot": 5.908e-05,
        "meta_mean_motion_ddot": 0,
        "tle_line1": "1 64901U 25156C   25356.71689646  .00005908  00000+0  27568-3 0  9999",
        "tle_line2": "2 64901  97.4339  72.9412 0001358 164.3046 195.8231 15.20218181 22724"
      },
      "geometry": {
        "type": "Point",
        "coordinates": [
          47.48762865495455,
          73.44223464964969
        ]
      }
    },
    {
      "type": "Feature",
      "properties": {
        "norad_id": 64902,
        "name": "CO3D 2",
        "group": "resource",
        "lat": -75.52756035221071,
        "lon": -136.95363162373636,
        "alt_km": 513.1426707930741,
        "timestamp": "2025-12-23T07:45:09.054666+00:00",
        "meta_object_name": "CO3D 2",
        "meta_object_id": "2025-156D",
        "meta_epoch": "2025-12-22T22:43:27.541056",
        "meta_mean_motion": 15.2019735,
        "meta_eccentricity": 8.768e-05,
        "meta_inclination": 97.4342,
        "meta_ra_of_asc_node": 73.0668,
        "meta_arg_of_pericenter": 68.1646,
        "meta_mean_anomaly": 291.9682,
        "meta_ephemeris_type": 0,
        "meta_classification_type": "U",
        "meta_norad_cat_id": 64902,
        "meta_element_set_no": 999,
        "meta_rev_at_epoch": 2275,
        "meta_bstar": 0.00078373985,
        "meta_mean_motion_dot": 0.00016935,
        "meta_mean_motion_ddot": 0,
        "tle_line1": "1 64902U 25156D   25356.94684654  .00016935  00000+0  78374-3 0  9992",
        "tle_line2": "2 64902  97.4342  73.0668 0000876  68.1646 291.9682 15.20197350 22750"
      },
      "geometry": {
        "type": "Point",
        "coordinates": [
          -136.95363162373636,
          -75.52756035221071
        ]
      }
    }
  ]
}